[{"OBJECT_NAME":"STARLINK-5241","OBJECT_ID":"2022-141AZ","EPOCH":"2026-03-09T22:51:32.574240","MEAN_MOTION":15.08833711,"ECCENTRICITY":0.0001412,"INCLINATION":53.2197,"RA_OF_ASC_NODE":352.5097,"ARG_OF_PERICENTER":104.364,"MEAN_ANOMALY":255.751,"EPHEMERIS_TYPE":0,"CLASSIFICATION_TYPE":"U","NORAD_CAT_ID":54204,"ELEMENT_SET_NO":999,"REV_AT_EPOCH":18604,"BSTAR":-1.7510616e-5,"MEAN_MOTION_DOT":-5.67e-6,"MEAN_MOTION_DDOT":0},{"OBJECT_NAME":"OV1-19 R\/B","OBJECT_ID":"1969-025E","EPOCH":"2026-03-09T09:30:04.454496","MEAN_MOTION":9.69876491,"ECCENTRICITY":0.26115268,"INCLINATION":104.7163,"RA_OF_ASC_NODE":50.231,"ARG_OF_PERICENTER":250.0366,"MEAN_ANOMALY":80.2553,"EPHEMERIS_TYPE":0,"CLASSIFICATION_TYPE":"U","NORAD_CAT_ID":3827,"ELEMENT_SET_NO":999,"REV_AT_EPOCH":99041,"BSTAR":0.00027655294,"MEAN_MOTION_DOT":5.08e-6,"MEAN_MOTION_DDOT":0}]
